EUTELSAT KONNECT        
1 45027U 20005B   25205.12593812  .00000038  00000+0  00000+0 0  9999
2 45027   0.0561  91.4138 0001001 120.5917 142.6187  1.00267707 21030
EUTELSAT QUANTUM        
1 49056U 21069B   25205.13391149  .00000115  00000+0  00000+0 0  9992
2 49056   0.0578 269.8680 0001937 232.9167 255.2187  1.00273482 14636
EUTELSAT KONNECT VHTS   
1 53765U 22110A   25204.91085161  .00000006  00000+0  00000+0 0  9990
2 53765   0.0554  94.0911 0002301  39.0908 139.3022  1.00271757  3532
EUTELSAT HOTBIRD 13F    
1 54048U 22134A   25205.12706479  .00000076  00000+0  00000+0 0  9994
2 54048   0.0681 279.9405 0001990  73.2016   7.6922  1.00270305 10142
EUTELSAT HOTBIRD 13G    
1 54225U 22146A   25205.12706479  .00000076  00000+0  00000+0 0  9994
2 54225   0.0577 243.1685 0002045 304.0239 173.6030  1.00270799  9925
EUTELSAT 10B            
1 54259U 22157A   25204.91232495  .00000057  00000+0  00000+0 0  9990
2 54259   0.0505  92.4802 0001450  53.0723 134.7114  1.00270235  9721
EUTELSAT 36D            
1 59346U 24059A   25204.91743830  .00000145  00000+0  00000+0 0  9993
2 59346   0.0262  68.5563 0000107 174.3742  65.1183  1.00270023  4854
